CCSDS_OMM_VERS = 2.0
CREATION_DATE  = 
ORIGINATOR     = 

OBJECT_NAME    = STARLINK-36618
OBJECT_ID      = 2026-033AC
CENTER_NAME    = EARTH
REF_FRAME      = TEME
TIME_SYSTEM    = UTC
MEAN_ELEMENT_THEORY = SGP/SGP4

EPOCH          = 2026-03-08T12:00:01.999296
MEAN_MOTION    = 15.91521435
ECCENTRICITY   = .000172
INCLINATION    = 42.9829
RA_OF_ASC_NODE = 276.4382
ARG_OF_PERICENTER = 277.4353
MEAN_ANOMALY   = 329.7535

EPHEMERIS_TYPE = 0
CLASSIFICATION_TYPE = U
NORAD_CAT_ID   = 67847
ELEMENT_SET_NO = 999
REV_AT_EPOCH   = 447
BSTAR          = -.73631E-4
MEAN_MOTION_DOT = -.27393E-3
MEAN_MOTION_DDOT = .85434E-5

CCSDS_OMM_VERS = 2.0
CREATION_DATE  = 
ORIGINATOR     = 

OBJECT_NAME    = STARLINK-36660
OBJECT_ID      = 2026-033AD
CENTER_NAME    = EARTH
REF_FRAME      = TEME
TIME_SYSTEM    = UTC
MEAN_ELEMENT_THEORY = SGP/SGP4

EPOCH          = 2026-03-08T11:25:30.586944
MEAN_MOTION    = 15.82120227
ECCENTRICITY   = .0001676
INCLINATION    = 42.9973
RA_OF_ASC_NODE = 278.6934
ARG_OF_PERICENTER = 263.4472
MEAN_ANOMALY   = 96.6209

EPHEMERIS_TYPE = 0
CLASSIFICATION_TYPE = U
NORAD_CAT_ID   = 67848
ELEMENT_SET_NO = 999
REV_AT_EPOCH   = 443
BSTAR          = .17938E-2
MEAN_MOTION_DOT = .396945E-2
MEAN_MOTION_DDOT = 0

CCSDS_OMM_VERS = 2.0
CREATION_DATE  = 
ORIGINATOR     = 

OBJECT_NAME    = STARLINK-36602
OBJECT_ID      = 2026-033AE
CENTER_NAME    = EARTH
REF_FRAME      = TEME
TIME_SYSTEM    = UTC
MEAN_ELEMENT_THEORY = SGP/SGP4

EPOCH          = 2026-03-08T11:24:25.742880
MEAN_MOTION    = 15.82269291
ECCENTRICITY   = .0002443
INCLINATION    = 42.9977
RA_OF_ASC_NODE = 278.6868
ARG_OF_PERICENTER = 242.5487
MEAN_ANOMALY   = 117.5136

EPHEMERIS_TYPE = 0
CLASSIFICATION_TYPE = U
NORAD_CAT_ID   = 67849
ELEMENT_SET_NO = 999
REV_AT_EPOCH   = 443
BSTAR          = .31215E-2
MEAN_MOTION_DOT = .723143E-2
MEAN_MOTION_DDOT = 0

CCSDS_OMM_VERS = 2.0
CREATION_DATE  = 
ORIGINATOR     = 

OBJECT_NAME    = STARLINK-36840
OBJECT_ID      = 2026-034A
CENTER_NAME    = EARTH
REF_FRAME      = TEME
TIME_SYSTEM    = UTC
MEAN_ELEMENT_THEORY = SGP/SGP4

EPOCH          = 2026-03-08T11:12:49.500576
MEAN_MOTION    = 15.80990710
ECCENTRICITY   = .0000781
INCLINATION    = 53.1589
RA_OF_ASC_NODE = 217.4842
ARG_OF_PERICENTER = 59.3316
MEAN_ANOMALY   = 300.7784

EPHEMERIS_TYPE = 0
CLASSIFICATION_TYPE = U
NORAD_CAT_ID   = 67850
ELEMENT_SET_NO = 999
REV_AT_EPOCH   = 374
BSTAR          = .20025E-2
MEAN_MOTION_DOT = .416466E-2
MEAN_MOTION_DDOT = 0

CCSDS_OMM_VERS = 2.0
CREATION_DATE  = 
ORIGINATOR     = 

OBJECT_NAME    = STARLINK-36348
OBJECT_ID      = 2026-034B
CENTER_NAME    = EARTH
REF_FRAME      = TEME
TIME_SYSTEM    = UTC
MEAN_ELEMENT_THEORY = SGP/SGP4

EPOCH          = 2026-03-08T11:11:44.735136
MEAN_MOTION    = 15.80934827
ECCENTRICITY   = .0001493
INCLINATION    = 53.1590
RA_OF_ASC_NODE = 217.4784
ARG_OF_PERICENTER = 60.6470
MEAN_ANOMALY   = 299.4702

EPHEMERIS_TYPE = 0
CLASSIFICATION_TYPE = U
NORAD_CAT_ID   = 67851
ELEMENT_SET_NO = 999
REV_AT_EPOCH   = 374
BSTAR          = .14639E-2
MEAN_MOTION_DOT = .299318E-2
MEAN_MOTION_DDOT = 0

CCSDS_OMM_VERS = 2.0
CREATION_DATE  = 
ORIGINATOR     = 

OBJECT_NAME    = STARLINK-36276
OBJECT_ID      = 2026-034C
CENTER_NAME    = EARTH
REF_FRAME      = TEME
TIME_SYSTEM    = UTC
MEAN_ELEMENT_THEORY = SGP/SGP4

EPOCH          = 2026-03-08T11:10:39.759744
MEAN_MOTION    = 15.80996732
ECCENTRICITY   = .0000839
INCLINATION    = 53.1590
RA_OF_ASC_NODE = 217.4731
ARG_OF_PERICENTER = 43.1663
MEAN_ANOMALY   = 316.9425

EPHEMERIS_TYPE = 0
CLASSIFICATION_TYPE = U
NORAD_CAT_ID   = 67852
ELEMENT_SET_NO = 999
REV_AT_EPOCH   = 374
BSTAR          = .18931E-2
MEAN_MOTION_DOT = .392677E-2
MEAN_MOTION_DDOT = 0

CCSDS_OMM_VERS = 2.0
CREATION_DATE  = 
ORIGINATOR     = 

OBJECT_NAME    = STARLINK-36785
OBJECT_ID      = 2026-034D
CENTER_NAME    = EARTH
REF_FRAME      = TEME
TIME_SYSTEM    = UTC
MEAN_ELEMENT_THEORY = SGP/SGP4

EPOCH          = 2026-03-08T09:38:33.056736
MEAN_MOTION    = 15.81149700
ECCENTRICITY   = .0001691
INCLINATION    = 53.1593
RA_OF_ASC_NODE = 217.7849
ARG_OF_PERICENTER = 146.1821
MEAN_ANOMALY   = 213.9310

EPHEMERIS_TYPE = 0
CLASSIFICATION_TYPE = U
NORAD_CAT_ID   = 67853
ELEMENT_SET_NO = 999
REV_AT_EPOCH   = 373
BSTAR          = .34769E-2
MEAN_MOTION_DOT = .75891E-2
MEAN_MOTION_DDOT = 0

CCSDS_OMM_VERS = 2.0
CREATION_DATE  = 
ORIGINATOR     = 

OBJECT_NAME    = STARLINK-36608
OBJECT_ID      = 2026-034E
CENTER_NAME    = EARTH
REF_FRAME      = TEME
TIME_SYSTEM    = UTC
MEAN_ELEMENT_THEORY = SGP/SGP4

EPOCH          = 2026-03-08T09:37:28.126272
MEAN_MOTION    = 15.81073345
ECCENTRICITY   = .0001715
INCLINATION    = 53.1591
RA_OF_ASC_NODE = 217.7799
ARG_OF_PERICENTER = 135.6209
MEAN_ANOMALY   = 224.4951

EPHEMERIS_TYPE = 0
CLASSIFICATION_TYPE = U
NORAD_CAT_ID   = 67854
ELEMENT_SET_NO = 999
REV_AT_EPOCH   = 372
BSTAR          = .31706E-2
MEAN_MOTION_DOT = .683449E-2
MEAN_MOTION_DDOT = 0

CCSDS_OMM_VERS = 2.0
CREATION_DATE  = 
ORIGINATOR     = 

OBJECT_NAME    = STARLINK-36838
OBJECT_ID      = 2026-034F
CENTER_NAME    = EARTH
REF_FRAME      = TEME
TIME_SYSTEM    = UTC
MEAN_ELEMENT_THEORY = SGP/SGP4

EPOCH          = 2026-03-08T12:38:27.544416
MEAN_MOTION    = 15.81146019
ECCENTRICITY   = .0000814
INCLINATION    = 53.1590
RA_OF_ASC_NODE = 217.1406
ARG_OF_PERICENTER = 314.5823
MEAN_ANOMALY   = 45.5133

EPHEMERIS_TYPE = 0
CLASSIFICATION_TYPE = U
NORAD_CAT_ID   = 67855
ELEMENT_SET_NO = 999
REV_AT_EPOCH   = 375
BSTAR          = .27875E-2
MEAN_MOTION_DOT = .596717E-2
MEAN_MOTION_DDOT = 0

CCSDS_OMM_VERS = 2.0
CREATION_DATE  = 
ORIGINATOR     = 

OBJECT_NAME    = STARLINK-36843
OBJECT_ID      = 2026-034G
CENTER_NAME    = EARTH
REF_FRAME      = TEME
TIME_SYSTEM    = UTC
MEAN_ELEMENT_THEORY = SGP/SGP4

EPOCH          = 2026-03-08T09:34:14.032992
MEAN_MOTION    = 15.81035955
ECCENTRICITY   = .0001017
INCLINATION    = 53.1591
RA_OF_ASC_NODE = 217.7644
ARG_OF_PERICENTER = 115.8416
MEAN_ANOMALY   = 244.2712

EPHEMERIS_TYPE = 0
CLASSIFICATION_TYPE = U
NORAD_CAT_ID   = 67856
ELEMENT_SET_NO = 999
REV_AT_EPOCH   = 373
BSTAR          = .23305E-2
MEAN_MOTION_DOT = .490021E-2
MEAN_MOTION_DDOT = 0

CCSDS_OMM_VERS = 2.0
CREATION_DATE  = 
ORIGINATOR     = 

OBJECT_NAME    = STARLINK-36828
OBJECT_ID      = 2026-034H
CENTER_NAME    = EARTH
REF_FRAME      = TEME
TIME_SYSTEM    = UTC
MEAN_ELEMENT_THEORY = SGP/SGP4

EPOCH          = 2026-03-08T11:06:20.937312
MEAN_MOTION    = 15.80945608
ECCENTRICITY   = .0001578
INCLINATION    = 53.1587
RA_OF_ASC_NODE = 217.4529
ARG_OF_PERICENTER = 83.3359
MEAN_ANOMALY   = 276.7844

EPHEMERIS_TYPE = 0
CLASSIFICATION_TYPE = U
NORAD_CAT_ID   = 67857
ELEMENT_SET_NO = 999
REV_AT_EPOCH   = 374
BSTAR          = .13826E-2
MEAN_MOTION_DOT = .282225E-2
MEAN_MOTION_DDOT = 0

CCSDS_OMM_VERS = 2.0
CREATION_DATE  = 
ORIGINATOR     = 

OBJECT_NAME    = STARLINK-36837
OBJECT_ID      = 2026-034J
CENTER_NAME    = EARTH
REF_FRAME      = TEME
TIME_SYSTEM    = UTC
MEAN_ELEMENT_THEORY = SGP/SGP4

EPOCH          = 2026-03-08T09:33:09.322848
MEAN_MOTION    = 15.81024489
ECCENTRICITY   = .0001326
INCLINATION    = 53.1594
RA_OF_ASC_NODE = 217.7592
ARG_OF_PERICENTER = 114.1275
MEAN_ANOMALY   = 245.9886

EPHEMERIS_TYPE = 0
CLASSIFICATION_TYPE = U
NORAD_CAT_ID   = 67858
ELEMENT_SET_NO = 999
REV_AT_EPOCH   = 373
BSTAR          = .22837E-2
MEAN_MOTION_DOT = .479291E-2
MEAN_MOTION_DDOT = 0

CCSDS_OMM_VERS = 2.0
CREATION_DATE  = 
ORIGINATOR     = 

OBJECT_NAME    = STARLINK-36393
OBJECT_ID      = 2026-034K
CENTER_NAME    = EARTH
REF_FRAME      = TEME
TIME_SYSTEM    = UTC
MEAN_ELEMENT_THEORY = SGP/SGP4

EPOCH          = 2026-03-08T11:03:06.413760
MEAN_MOTION    = 15.80944995
ECCENTRICITY   = .0001187
INCLINATION    = 53.1590
RA_OF_ASC_NODE = 217.4367
ARG_OF_PERICENTER = 106.0612
MEAN_ANOMALY   = 254.0541

EPHEMERIS_TYPE = 0
CLASSIFICATION_TYPE = U
NORAD_CAT_ID   = 67859
ELEMENT_SET_NO = 999
REV_AT_EPOCH   = 374
BSTAR          = .14172E-2
MEAN_MOTION_DOT = .289553E-2
MEAN_MOTION_DDOT = 0

CCSDS_OMM_VERS = 2.0
CREATION_DATE  = 
ORIGINATOR     = 

OBJECT_NAME    = STARLINK-35873
OBJECT_ID      = 2026-034L
CENTER_NAME    = EARTH
REF_FRAME      = TEME
TIME_SYSTEM    = UTC
MEAN_ELEMENT_THEORY = SGP/SGP4

EPOCH          = 2026-03-08T11:02:01.492800
MEAN_MOTION    = 15.80956272
ECCENTRICITY   = .0001062
INCLINATION    = 53.1592
RA_OF_ASC_NODE = 217.4322
ARG_OF_PERICENTER = 74.6276
MEAN_ANOMALY   = 285.4864

EPHEMERIS_TYPE = 0
CLASSIFICATION_TYPE = U
NORAD_CAT_ID   = 67860
ELEMENT_SET_NO = 999
REV_AT_EPOCH   = 377
BSTAR          = .15396E-2
MEAN_MOTION_DOT = .315751E-2
MEAN_MOTION_DDOT = 0

CCSDS_OMM_VERS = 2.0
CREATION_DATE  = 
ORIGINATOR     = 

OBJECT_NAME    = STARLINK-36325
OBJECT_ID      = 2026-034M
CENTER_NAME    = EARTH
REF_FRAME      = TEME
TIME_SYSTEM    = UTC
MEAN_ELEMENT_THEORY = SGP/SGP4

EPOCH          = 2026-03-08T09:29:54.643776
MEAN_MOTION    = 15.81072108
ECCENTRICITY   = .0001422
INCLINATION    = 53.1592
RA_OF_ASC_NODE = 217.7438
ARG_OF_PERICENTER = 105.3935
MEAN_ANOMALY   = 254.7245

EPHEMERIS_TYPE = 0
CLASSIFICATION_TYPE = U
NORAD_CAT_ID   = 67861
ELEMENT_SET_NO = 999
REV_AT_EPOCH   = 373
BSTAR          = .32326E-2
MEAN_MOTION_DOT = .698022E-2
MEAN_MOTION_DDOT = 0

